MIDORI II (ADEOS-II)    
1 27597U 02056A   24229.41854884  .00001287  00000+0  53189-3 0  9990
2 27597  98.6945 175.8714 0000812 134.1442 225.9806 14.28466779128856
H-2A R/B                
1 27601U 02056E   24229.42954149  .00001547  00000+0  56435-3 0  9998
2 27601  98.2354 203.5279 0072375  62.3197  50.4827 14.32923591132415
CZ-4B R/B               
1 28059U 03049C   24229.54395758  .00001627  00000+0  39229-3 0  9998
2 28059  98.6160 193.6364 0049201 170.4617 189.7524 14.53914159103710
CZ-2C R/B               
1 28222U 04012C   24229.05229296  .00022274  00000+0  80058-3 0  9997
2 28222  97.8031 244.7519 0032842 196.8968 163.1179 15.28137919116231
SL-16 R/B               
1 28353U 04021B   24229.41820012  .00000091  00000+0  72181-4 0  9997
2 28353  71.0041 349.1260 0005710 211.1791 148.8994 14.14441979 42199
CZ-4B R/B               
1 28415U 04035C   24229.05945461  .00012377  00000+0  61783-3 0  9992
2 28415  97.4203 261.4232 0042235 173.1129 187.0694 15.16841962 93030
CZ-2C R/B               
1 28480U 04046B   24229.41538768  .00001311  00000+0  50501-3 0  9996
2 28480  98.1644 169.6089 0141446  41.6251 319.5595 14.26450952 27187
ARIANE 5 R/B            
1 28499U 04049H   24229.39204144  .00003151  00000+0  37019-3 0  9997
2 28499  98.1915   8.7849 0088496  38.9411 321.8131 14.82875639 61193
CZ-2D R/B               
1 28738U 05024B   24228.96209478  .00022153  00000+0  80930-3 0  9997
2 28738  97.3652 226.7388 0005857 295.2610  64.8022 15.28100855 51786
SUZAKU (ASTRO-EII)      
1 28773U 05025A   24228.94449986  .00072907  00000+0  11656-2 0  9995
2 28773  31.3869  92.0218 0002555 289.9520  70.0861 15.51829215 56263
ALOS (DAICHI)           
1 28931U 06002A   24229.42481975  .00005597  00000+0  10237-2 0  9990
2 28931  98.0394 181.2241 0001224  60.2988 299.8338 14.66253196989808
H-2A R/B                
1 28932U 06002B   24229.27417646  .00013677  00000+0  98474-3 0  9996
2 28932  98.2020 324.3722 0068198   5.9145 354.2868 15.02441196  8351
RESURS-DK 1             
1 29228U 06021A   24229.40109000  .00005887  00000+0  38979-3 0  9991
2 29228  69.9342 267.2593 0007600 276.7470  83.2828 15.07829626  1400
GENESIS 1               
1 29252U 06029A   24229.49687378  .00042065  00000+0  96726-3 0  9997
2 29252  64.5160 322.0333 0031295 315.7464  44.1168 15.41907436999944
CZ-4B R/B               
1 29507U 06046C   24229.13914008  .00010475  00000+0  66254-3 0  9996
2 29507  97.6397 264.8569 0041066  73.7607 286.8133 15.08487546973753
CZ-2C R/B               
1 31114U 07010B   24229.36870209  .00000762  00000+0  37143-3 0  9997
2 31114  98.3406   1.9465 0059930 152.3142 208.1248 14.19845455898771
COSMO-SKYMED 1          
1 31598U 07023A   24226.78986728  .00002947  00000+0  37646-3 0  9999
2 31598  97.8891  49.0929 0001459  87.2595 272.8785 14.82178217929659
GENESIS 2               
1 31789U 07028A   24228.63370440  .00037052  00000+0  92486-3 0  9998
2 31789  64.4901  10.9641 0016462 232.7649 127.1983 15.39852535946564
COSMOS 2428             
1 31792U 07029A   24229.38506545  .00000175  00000+0  11996-3 0  9996
2 31792  70.9369 320.4406 0010454 319.2406  40.7932 14.12708447883547
SL-16 R/B               
1 31793U 07029B   24229.40939839 -.00000024  00000+0  12146-4 0  9999
2 31793  70.9760 291.0245 0002227 267.1306 172.0919 14.14655248884712
KORONAS-FOTON           
1 33504U 09003A   24229.23045601  .00018928  00000+0  69853-3 0  9998
2 33504  82.4387 141.9980 0016382  37.5194 322.7185 15.27520983858180
CZ-2C R/B               
1 37731U 11030B   24229.45623328  .00005448  00000+0  74088-3 0  9998
2 37731  97.7677 191.1747 0056937  46.0519  67.0185 14.78044998705756
H-2A R/B                
1 38341U 12025E   24229.35851618  .00007741  00000+0  80579-3 0  9995
2 38341  98.4183 144.6925 0050375  14.6893 345.5772 14.89201140663149
CUSAT 2 & FALCON 9 R/B  
1 39271U 13055G   24229.43973963  .00135852  30376-5  12881-2 0  9999
2 39271  80.9291   6.3176 0265138 103.0494 260.0483 15.33500422574578
SHIJIAN-16 (SJ-16)      
1 39358U 13057A   24226.89626276  .00004705  00000+0  49999-3 0  9994
2 39358  74.9731 187.2870 0016170  56.8669 303.4067 14.89126328586139
SL-4 R/B                
1 39679U 14021B   24229.23871491  .00012792  00000+0  45469-3 0  9997
2 39679  51.6086 204.1798 0132670 210.3232 149.0022 15.21380563568905
ALOS-2                  
1 39766U 14029A   24226.80100627  .00008110  00000+0  10922-2 0  9992
2 39766  97.9221 322.6193 0001693  98.5023 261.6380 14.79450085552163
SL-27 R/B               
1 40354U 14084B   24229.07735182  .00132110  73433-5  51866-3 0  9997
2 40354  74.7170  78.0204 0017136 196.8297 163.2373 15.86595474543602
YAOGAN-29               
1 41038U 15069A   24226.84588029  .00002344  00000+0  30353-3 0  9996
2 41038  98.0550 241.5940 0002884  70.9243 289.2281 14.81822821471008
ASTRO-H (HITOMI)        
1 41337U 16012A   24229.25699546  .00007393  00000+0  51067-3 0  9996
2 41337  31.0024  64.0984 0011147  13.7261 346.3678 15.04360448466070
HXMT (HUIYAN)           
1 42758U 17034A   24226.72431654  .00018736  00000+0  97514-3 0  9992
2 42758  43.0154 316.1817 0012337 162.1166 198.0118 15.15657319395560
CZ-2C R/B               
1 43521U 18054D   24228.94093751  .00025653  00000+0  80284-3 0  9994
2 43521  35.1446  97.5585 0056724 312.7217  46.8736 15.30590520340029
SAOCOM 1A               
1 43641U 18076A   24226.79846672  .00002448  00000+0  31381-3 0  9991
2 43641  97.8900  52.1916 0001379  91.8655 268.2716 14.82175928316505
H-2A R/B                
1 43682U 18084L   24229.23868984  .00024771  00000+0  12402-2 0  9992
2 43682  98.8515 326.5564 0043234 168.9527 191.2661 15.16567539318596
SAOCOM 1B               
1 46265U 20059A   24226.82972668  .00002163  00000+0  27811-3 0  9996
2 46265  97.8904  51.3169 0001378  91.2031 268.9340 14.82173613213893
CSS (TIANHE)            
1 48274U 21035A   24226.84347426  .00058127  00000+0  68373-3 0  9992
2 48274  41.4681  91.7025 0002112 246.8998 113.1618 15.60530429188112
COSMOS 2550             
1 48865U 21056A   24229.55993343  .00000754  00000+0  28738-4 0  9992
2 48865  67.1437 325.6783 0008619 270.7414 210.6197 15.33835129176037
CZ-2C R/B               
1 52794U 22058K   24229.52975157  .00023672  00000+0  86249-3 0  9995
2 52794  50.2037 304.2129 0078777  11.8347 348.4439 15.25119246122328
XRISM                   
1 57800U 23137A   24229.05562963  .00012399  00000+0  91470-3 0  9998
2 57800  31.0044 351.3091 0009896  81.2459 278.9298 15.02070067 51613
SZ-17 MODULE            
1 59624U 23164C   24226.80387612  .00074056  00000+0  57113-3 0  9994
2 59624  41.4756  88.7233 0010250 293.6725  66.3041 15.70903245 16584
